start=new Date('2021-10-12T00:00:00.000Z').valueOf();
sats=[{"OBJECT_NAME":"STARLINK-1334","SEMIMAJOR_AXIS":"6925.386","REV_AT_EPOCH":"8272","OBJECT_TYPE":"PAYLOAD","REF_FRAME":"TEME","ELEMENT_SET_NO":"999","PERIOD":"95.593","TLE_LINE2":"2 45556  53.0542 113.6921 0001981  76.6753 283.4457 15.06387772 82720","FILE":"3157563","MEAN_MOTION_DDOT":"0.0000000000000","APOAPSIS":"548.623","TIME_SYSTEM":"UTC","CLASSIFICATION_TYPE":"U","OBJECT_ID":"2020-025AB","BSTAR":"0.00008701700000","EPHEMERIS_TYPE":"0","LAUNCH_DATE":"2020-04-22","SITE":"AFETR","MEAN_MOTION":"15.06387772","RA_OF_ASC_NODE":"113.6921","EPOCH":"2021-10-11T19:16:01.072416","ECCENTRICITY":"0.00019810","NORAD_CAT_ID":"45556","COUNTRY_CODE":"US","PERIAPSIS":"545.879","DECAY_DATE":null,"GP_ID":"186928347","TLE_LINE1":"1 45556U 20025AB  21284.80279019  .00001014  00000-0  87017-4 0  9990","MEAN_MOTION_DOT":"0.00001014","MEAN_ELEMENT_THEORY":"SGP4","ARG_OF_PERICENTER":"76.6753","INCLINATION":"53.0542","CENTER_NAME":"EARTH","RCS_SIZE":"LARGE","MEAN_ANOMALY":"283.4457"},{"RCS_SIZE":"LARGE","MEAN_ANOMALY":"277.1663","PERIAPSIS":"545.849","DECAY_DATE":null,"NORAD_CAT_ID":"45557","COUNTRY_CODE":"US","TLE_LINE1":"1 45557U 20025AC  21284.81015204  .00001361  00000-0  11025-3 0  9996","MEAN_MOTION_DOT":"0.00001361","GP_ID":"186928098","MEAN_ELEMENT_THEORY":"SGP4","INCLINATION":"53.0549","CENTER_NAME":"EARTH","ARG_OF_PERICENTER":"82.9552","FILE":"3157563","MEAN_MOTION_DDOT":"0.0000000000000","PERIOD":"95.592","ELEMENT_SET_NO":"999","TLE_LINE2":"2 45557  53.0549 113.6570 0001987  82.9552 277.1663 15.06396296 82721","TIME_SYSTEM":"UTC","APOAPSIS":"548.601","BSTAR":"0.00011025000000","EPHEMERIS_TYPE":"0","CLASSIFICATION_TYPE":"U","OBJECT_ID":"2020-025AC","RA_OF_ASC_NODE":"113.6570","EPOCH":"2021-10-11T19:26:37.136256","ECCENTRICITY":"0.00019870","LAUNCH_DATE":"2020-04-22","SITE":"AFETR","MEAN_MOTION":"15.06396296","OBJECT_NAME":"STARLINK-1336","REV_AT_EPOCH":"8272","SEMIMAJOR_AXIS":"6925.360","REF_FRAME":"TEME","OBJECT_TYPE":"PAYLOAD"},{"MEAN_ANOMALY":"269.5727","RCS_SIZE":"LARGE","INCLINATION":"53.0540","CENTER_NAME":"EARTH","ARG_OF_PERICENTER":"90.5487","MEAN_ELEMENT_THEORY":"SGP4","TLE_LINE1":"1 45558U 20025AD  21284.84333229  .00001692  00000-0  13243-3 0  9991","MEAN_MOTION_DOT":"0.00001692","GP_ID":"186926846","PERIAPSIS":"545.835","DECAY_DATE":null,"NORAD_CAT_ID":"45558","COUNTRY_CODE":"US","RA_OF_ASC_NODE":"113.5071","EPOCH":"2021-10-11T20:14:23.909856","ECCENTRICITY":"0.00019640","LAUNCH_DATE":"2020-04-22","MEAN_MOTION":"15.06406112","SITE":"AFETR","BSTAR":"0.00013243000000","EPHEMERIS_TYPE":"0","CLASSIFICATION_TYPE":"U","OBJECT_ID":"2020-025AD","TIME_SYSTEM":"UTC","APOAPSIS":"548.555","FILE":"3157563","MEAN_MOTION_DDOT":"0.0000000000000","PERIOD":"95.592","ELEMENT_SET_NO":"999","TLE_LINE2":"2 45558  53.0540 113.5071 0001964  90.5487 269.5727 15.06406112 82720","REF_FRAME":"TEME","OBJECT_TYPE":"PAYLOAD","REV_AT_EPOCH":"8272","SEMIMAJOR_AXIS":"6925.330","OBJECT_NAME":"STARLINK-1342"},{"REV_AT_EPOCH":"8272","SEMIMAJOR_AXIS":"6925.339","OBJECT_NAME":"STARLINK-1344","OBJECT_TYPE":"PAYLOAD","REF_FRAME":"TEME","APOAPSIS":"548.430","TIME_SYSTEM":"UTC","TLE_LINE2":"2 45559  53.0532 113.6341 0001770  90.8069 269.3123 15.06403150 82724","ELEMENT_SET_NO":"999","PERIOD":"95.592","FILE":"3157563","MEAN_MOTION_DDOT":"0.0000000000000","MEAN_MOTION":"15.06403150","SITE":"AFETR","LAUNCH_DATE":"2020-04-22","ECCENTRICITY":"0.00017700","EPOCH":"2021-10-11T19:31:54.575040","RA_OF_ASC_NODE":"113.6341","OBJECT_ID":"2020-025AE","CLASSIFICATION_TYPE":"U","EPHEMERIS_TYPE":"0","BSTAR":"-0.00001663100000","GP_ID":"186927596","MEAN_MOTION_DOT":"-0.00000529","TLE_LINE1":"1 45559U 20025AE  21284.81382610 -.00000529  00000-0 -16631-4 0  9992","COUNTRY_CODE":"US","NORAD_CAT_ID":"45559","DECAY_DATE":null,"PERIAPSIS":"545.978","ARG_OF_PERICENTER":"90.8069","CENTER_NAME":"EARTH","INCLINATION":"53.0532","MEAN_ELEMENT_THEORY":"SGP4","RCS_SIZE":"LARGE","MEAN_ANOMALY":"269.3123"},{"MEAN_ANOMALY":"285.8629","RCS_SIZE":"LARGE","MEAN_ELEMENT_THEORY":"SGP4","CENTER_NAME":"EARTH","INCLINATION":"53.0543","ARG_OF_PERICENTER":"74.2582","DECAY_DATE":null,"PERIAPSIS":"545.845","COUNTRY_CODE":"US","NORAD_CAT_ID":"45560","MEAN_MOTION_DOT":"0.00001529","TLE_LINE1":"1 45560U 20025AF  21284.80001958  .00001529  00000-0  12155-3 0  9991","GP_ID":"186927848","EPHEMERIS_TYPE":"0","BSTAR":"0.00012155000000","OBJECT_ID":"2020-025AF","CLASSIFICATION_TYPE":"U","ECCENTRICITY":"0.00020140","EPOCH":"2021-10-11T19:12:01.691712","RA_OF_ASC_NODE":"103.7003","SITE":"AFETR","MEAN_MOTION":"15.06391369","LAUNCH_DATE":"2020-04-22","FILE":"3157563","MEAN_MOTION_DDOT":"0.0000000000000","TLE_LINE2":"2 45560  53.0543 103.7003 0002014  74.2582 285.8629 15.06391369 82868","ELEMENT_SET_NO":"999","PERIOD":"95.593","TIME_SYSTEM":"UTC","APOAPSIS":"548.635","REF_FRAME":"TEME","OBJECT_TYPE":"PAYLOAD","OBJECT_NAME":"STARLINK-1346","SEMIMAJOR_AXIS":"6925.375","REV_AT_EPOCH":"8286"},{"MEAN_ANOMALY":"232.2813","RCS_SIZE":"LARGE","ARG_OF_PERICENTER":"127.8269","CENTER_NAME":"EARTH","INCLINATION":"53.0602","MEAN_ELEMENT_THEORY":"SGP4","GP_ID":"186897840","TLE_LINE1":"1 45561U 20025AG  21284.57338512  .00008240  00000-0  55939-3 0  9999","MEAN_MOTION_DOT":"0.00008240","NORAD_CAT_ID":"45561","COUNTRY_CODE":"US","PERIAPSIS":"544.061","DECAY_DATE":null,"LAUNCH_DATE":"2020-04-22","MEAN_MOTION":"15.07197081","SITE":"AFETR","RA_OF_ASC_NODE":"29.4942","EPOCH":"2021-10-11T13:45:40.474368","ECCENTRICITY":"0.00010260","CLASSIFICATION_TYPE":"U","OBJECT_ID":"2020-025AG","BSTAR":"0.00055939000000","EPHEMERIS_TYPE":"0","APOAPSIS":"545.482","TIME_SYSTEM":"UTC","ELEMENT_SET_NO":"999","PERIOD":"95.542","TLE_LINE2":"2 45561  53.0602  29.4942 0001026 127.8269 232.2813 15.07197081 83295","FILE":"3157129","MEAN_MOTION_DDOT":"0.0000000000000","OBJECT_TYPE":"PAYLOAD","REF_FRAME":"TEME","REV_AT_EPOCH":"8329","SEMIMAJOR_AXIS":"6922.907","OBJECT_NAME":"STARLINK-1348"},{"TIME_SYSTEM":"UTC","APOAPSIS":"548.535","FILE":"3157563","MEAN_MOTION_DDOT":"0.0000000000000","ELEMENT_SET_NO":"999","PERIOD":"95.592","TLE_LINE2":"2 45562  53.0534 113.6049 0001889  86.3950 273.7255 15.06395660 82726","RA_OF_ASC_NODE":"113.6049","ECCENTRICITY":"0.00018890","EPOCH":"2021-10-11T19:42:31.094208","LAUNCH_DATE":"2020-04-22","SITE":"AFETR","MEAN_MOTION":"15.06395660","BSTAR":"-0.00024033000000","EPHEMERIS_TYPE":"0","CLASSIFICATION_TYPE":"U","OBJECT_ID":"2020-025AH","REV_AT_EPOCH":"8272","SEMIMAJOR_AXIS":"6925.362","OBJECT_NAME":"STARLINK-1354","REF_FRAME":"TEME","OBJECT_TYPE":"PAYLOAD","RCS_SIZE":"LARGE","MEAN_ANOMALY":"273.7255","TLE_LINE1":"1 45562U 20025AH  21284.82119322 -.00003859  00000-0 -24033-3 0  9998","MEAN_MOTION_DOT":"-0.00003859","GP_ID":"186927346","PERIAPSIS":"545.919","DECAY_DATE":null,"NORAD_CAT_ID":"45562","COUNTRY_CODE":"US","INCLINATION":"53.0534","CENTER_NAME":"EARTH","ARG_OF_PERICENTER":"86.3950","MEAN_ELEMENT_THEORY":"SGP4"},{"MEAN_ANOMALY":"274.9380","RCS_SIZE":"LARGE","ARG_OF_PERICENTER":"85.1837","CENTER_NAME":"EARTH","INCLINATION":"53.0547","MEAN_ELEMENT_THEORY":"SGP4","GP_ID":"186927097","TLE_LINE1":"1 45563U 20025AJ  21284.83595731 -.00000603  00000-0 -21536-4 0  9992","MEAN_MOTION_DOT":"-0.00000603","NORAD_CAT_ID":"45563","COUNTRY_CODE":"US","PERIAPSIS":"545.828","DECAY_DATE":null,"LAUNCH_DATE":"2020-04-22","MEAN_MOTION":"15.06400948","SITE":"AFETR","RA_OF_ASC_NODE":"113.5399","EPOCH":"2021-10-11T20:03:46.711584","ECCENTRICITY":"0.00019960","CLASSIFICATION_TYPE":"U","OBJECT_ID":"2020-025AJ","BSTAR":"-0.00002153600000","EPHEMERIS_TYPE":"0","APOAPSIS":"548.593","TIME_SYSTEM":"UTC","ELEMENT_SET_NO":"999","PERIOD":"95.592","TLE_LINE2":"2 45563  53.0547 113.5399 0001996  85.1837 274.9380 15.06400948 82726","MEAN_MOTION_DDOT":"0.0000000000000","FILE":"3157563","OBJECT_TYPE":"PAYLOAD","REF_FRAME":"TEME","REV_AT_EPOCH":"8272","SEMIMAJOR_AXIS":"6925.346","OBJECT_NAME":"STARLINK-1355"},{"INCLINATION":"53.0527","CENTER_NAME":"EARTH","ARG_OF_PERICENTER":"81.9512","MEAN_ELEMENT_THEORY":"SGP4","MEAN_MOTION_DOT":"0.00001061","TLE_LINE1":"1 45564U 20025AK  21284.83226700  .00001061  00000-0  90138-4 0  9991","GP_ID":"186928348","DECAY_DATE":null,"PERIAPSIS":"545.763","COUNTRY_CODE":"US","NORAD_CAT_ID":"45564","MEAN_ANOMALY":"278.1717","RCS_SIZE":"LARGE","REF_FRAME":"TEME","OBJECT_TYPE":"PAYLOAD","REV_AT_EPOCH":"8272","SEMIMAJOR_AXIS":"6925.365","OBJECT_NAME":"STARLINK-1356","EPOCH":"2021-10-11T19:58:27.868800","ECCENTRICITY":"0.00021190","RA_OF_ASC_NODE":"113.5524","MEAN_MOTION":"15.06394508","SITE":"AFETR","LAUNCH_DATE":"2020-04-22","EPHEMERIS_TYPE":"0","BSTAR":"0.00009013800000","OBJECT_ID":"2020-025AK","CLASSIFICATION_TYPE":"U","TIME_SYSTEM":"UTC","APOAPSIS":"548.698","FILE":"3157563","MEAN_MOTION_DDOT":"0.0000000000000","TLE_LINE2":"2 45564  53.0527 113.5524 0002119  81.9512 278.1717 15.06394508 82721","PERIOD":"95.592","ELEMENT_SET_NO":"999"},{"OBJECT_ID":"2020-025AL","CLASSIFICATION_TYPE":"U","EPHEMERIS_TYPE":"0","BSTAR":"0.00010898000000","SITE":"AFETR","MEAN_MOTION":"15.06399399","LAUNCH_DATE":"2020-04-22","EPOCH":"2021-10-11T18:12:18.160992","ECCENTRICITY":"0.00020420","RA_OF_ASC_NODE":"113.8865","TLE_LINE2":"2 45565  53.0535 113.8865 0002042  87.4984 272.6239 15.06399399 82711","PERIOD":"95.592","ELEMENT_SET_NO":"999","MEAN_MOTION_DDOT":"0.0000000000000","FILE":"3157563","APOAPSIS":"548.630","TIME_SYSTEM":"UTC","OBJECT_TYPE":"PAYLOAD","REF_FRAME":"TEME","OBJECT_NAME":"STARLINK-1357","REV_AT_EPOCH":"8271","SEMIMAJOR_AXIS":"6925.350","MEAN_ANOMALY":"272.6239","RCS_SIZE":"LARGE","MEAN_ELEMENT_THEORY":"SGP4","ARG_OF_PERICENTER":"87.4984","INCLINATION":"53.0535","CENTER_NAME":"EARTH","COUNTRY_CODE":"US","NORAD_CAT_ID":"45565","DECAY_DATE":null,"PERIAPSIS":"545.801","GP_ID":"186928099","MEAN_MOTION_DOT":"0.00001342","TLE_LINE1":"1 45565U 20025AL  21284.75854353  .00001342  00000-0  10898-3 0  9990"}];
